NORAD_CAT_ID,OBJECT_NAME,OBJECT_TYPE,EPOCH,MEAN_MOTION,ECCENTRICITY,INCLINATION,RA_OF_ASC_NODE,ARG_OF_PERICENTER,MEAN_ANOMALY,BSTAR,MEAN_MOTION_DOT,MEAN_MOTION_DDOT,TLE_LINE0,TLE_LINE1,TLE_LINE2,SEMIMAJOR_AXIS,PERIOD,APOGEE,PERIGEE,DECAYED
50168.0,STARLINK-3296,PAYLOAD,2024-05-16 20:20:33,15.08851737,0.000119,53.2176,340.3309,87.8177,272.2952,2.4349e-05,1e-06,0.0,0 STARLINK-3296,1 50168U 21125N   24137.84761498  .00000100  00000-0  24349-4 0  9992,2 50168  53.2176 340.3309 0001190  87.8177 272.2952 15.08851737136685,6917.845,95.437,540.533,538.886,0.0
50168.0,STARLINK-3296,PAYLOAD,2024-05-16 23:31:20,15.08852586,0.0001259,53.2179,339.7364,89.3456,270.7681,8.5192e-05,1.069e-05,0.0,0 STARLINK-3296,1 50168U 21125N   24137.98009431  .00001069  00000-0  85192-4 0  9997,2 50168  53.2179 339.7364 0001259  89.3456 270.7681 15.08852586133619,6917.842,95.437,540.578,538.836,0.0
50168.0,STARLINK-3296,PAYLOAD,2024-05-17 13:49:49,15.08828652,0.0001408,53.2175,337.0606,91.2715,268.8439,-2.8117e-05,-7.35e-06,0.0,0 STARLINK-3296,1 50168U 21125N   24138.57626510 -.00000735  00000-0 -28117-4 0  9991,2 50168  53.2175 337.0606 0001408  91.2715 268.8439 15.08828652133707,6917.915,95.438,540.754,538.806,0.0
50168.0,STARLINK-3296,PAYLOAD,2024-05-17 20:11:22,15.08813183,6.16e-05,53.2186,335.8711,75.1607,284.9454,-0.00019178,-3.336e-05,0.0,0 STARLINK-3296,1 50168U 21125N   24138.84123606 -.00003336  00000-0 -19178-3 0  9995,2 50168  53.2186 335.8711 0000616  75.1607 284.9454 15.08813183133746,6917.962,95.439,540.254,539.401,0.0
50168.0,STARLINK-3296,PAYLOAD,2024-05-18 05:43:40,15.08843567,0.000126,53.2186,334.087,80.7988,279.3147,0.0001422,1.976e-05,0.0,0 STARLINK-3296,1 50168U 21125N   24139.23866244  .00001976  00000-0  14220-3 0  9990,2 50168  53.2186 334.0870 0001260  80.7988 279.3147 15.08843567133806,6917.869,95.437,540.606,538.863,0.0
50168.0,STARLINK-3296,PAYLOAD,2024-05-18 20:02:09,15.08815913,0.0001609,53.2143,331.4106,86.9136,273.204,-0.00020025,-3.471e-05,0.0,0 STARLINK-3296,1 50168U 21125N   24139.83482981 -.00003471  00000-0 -20025-3 0  9992,2 50168  53.2143 331.4106 0001609  86.9136 273.2040 15.08815913133890,6917.954,95.439,540.932,538.706,0.0
50168.0,STARLINK-3296,PAYLOAD,2024-05-18 21:37:32,15.08813166,0.0001718,53.2147,331.1146,91.6114,268.5075,-0.00024345,-4.158e-05,0.0,0 STARLINK-3296,1 50168U 21125N   24139.90107203 -.00004158  00000-0 -24345-3 0  9993,2 50168  53.2147 331.1146 0001718  91.6114 268.5075 15.08813166136992,6917.962,95.439,541.016,538.639,0.0
50168.0,STARLINK-3296,PAYLOAD,2024-05-19 19:52:56,15.08828737,0.0001333,53.2167,326.9501,89.221,270.8935,0.00015926,2.247e-05,0.0,0 STARLINK-3296,1 50168U 21125N   24140.82843485  .00002247  00000-0  15926-3 0  9995,2 50168  53.2167 326.9501 0001333  89.2210 270.8935 15.08828737134049,6917.915,95.438,540.702,538.858,0.0
50168.0,STARLINK-3296,PAYLOAD,2024-05-19 21:28:20,15.08830605,0.0002359,53.2168,326.6529,104.9912,255.1342,0.00019191,2.767e-05,0.0,0 STARLINK-3296,1 50168U 21125N   24140.89467653  .00002767  00000-0  19191-3 0  9996,2 50168  53.2168 326.6529 0002359 104.9912 255.1342 15.08830605137149,6917.909,95.438,541.406,538.142,0.0
50168.0,STARLINK-3296,PAYLOAD,2024-05-20 19:43:43,15.08848707,0.0001457,53.2166,322.4917,95.9281,264.1877,0.00050696,7.791e-05,0.0,0 STARLINK-3296,1 50168U 21125N   24141.82203011  .00007791  00000-0  50696-3 0  9993,2 50168  53.2166 322.4917 0001457  95.9281 264.1877 15.08848707134195,6917.854,95.437,540.727,538.711,0.0
50168.0,STARLINK-3296,PAYLOAD,2024-05-21 02:05:15,15.08870362,0.0001425,53.2164,321.3025,98.0156,262.0998,0.0011647,0.00018312,0.0,0 STARLINK-3296,1 50168U 21125N   24142.08698576  .00018312  00000-0  11647-2 0  9999,2 50168  53.2164 321.3025 0001425  98.0156 262.0998 15.08870362134239,6917.788,95.436,540.638,538.667,0.0
50168.0,STARLINK-3296,PAYLOAD,2024-05-21 17:59:07,15.08841544,0.0001513,53.2163,318.3282,105.0912,255.0248,0.00012938,1.772e-05,0.0,0 STARLINK-3296,1 50168U 21125N   24142.74939053  .00001772  00000-0  12938-3 0  9997,2 50168  53.2163 318.3282 0001513 105.0912 255.0248 15.08841544134337,6917.876,95.437,540.787,538.694,0.0
50168.0,STARLINK-3296,PAYLOAD,2024-05-22 11:28:21,15.08852503,0.0001485,53.2165,315.0577,94.283,265.8332,0.00086695,0.00013541,0.0,0 STARLINK-3296,1 50168U 21125N   24143.47803025  .00013541  00000-0  86695-3 0  9995,2 50168  53.2165 315.0577 0001485  94.2830 265.8332 15.08852503137531,6917.842,95.437,540.734,538.68,0.0
50168.0,STARLINK-3296,PAYLOAD,2024-05-23 11:19:09,15.08847382,0.0001456,53.2173,310.5974,333.2863,26.8054,0.00072064,0.00011202,0.0,0 STARLINK-3296,1 50168U 21125N   24144.47163235  .00011202  00000-0  72064-3 0  9995,2 50168  53.2173 310.5974 0001456 333.2863  26.8054 15.08847382134599,6917.858,95.437,540.73,538.716,0.0
50168.0,STARLINK-3296,PAYLOAD,2024-05-23 14:29:55,15.08835803,0.0001108,53.217,310.0002,67.4944,292.6165,0.00016776,2.383e-05,0.0,0 STARLINK-3296,1 50168U 21125N   24144.60411244  .00002383  00000-0  16776-3 0  9994,2 50168  53.2170 310.0002 0001108  67.4944 292.6165 15.08835803137700,6917.893,95.438,540.525,538.992,0.0
50168.0,STARLINK-3296,PAYLOAD,2024-05-23 20:51:27,15.08838337,0.00013,53.2173,308.8099,101.4436,258.6702,4.404e-05,4.13e-06,0.0,0 STARLINK-3296,1 50168U 21125N   24144.86907278  .00000413  00000-0  44040-4 0  9997,2 50168  53.2173 308.8099 0001300 101.4436 258.6702 15.08838337137741,6917.885,95.438,540.65,538.851,0.0
50168.0,STARLINK-3296,PAYLOAD,2024-05-24 14:20:42,15.08839398,0.0001267,53.2174,305.5391,99.6507,260.4629,9.7765e-05,1.268e-05,0.0,0 STARLINK-3296,1 50168U 21125N   24145.59771364  .00001268  00000-0  97765-4 0  9994,2 50168  53.2174 305.5391 0001267  99.6507 260.4629 15.08839398137859,6917.882,95.438,540.624,538.871,0.0
50168.0,STARLINK-3296,PAYLOAD,2024-05-24 20:42:14,15.0885623,0.0001323,53.2169,304.3492,104.3407,255.7732,-0.00024159,-4.132e-05,0.0,0 STARLINK-3296,1 50168U 21125N   24145.86266257 -.00004132  00000-0 -24159-3 0  9995,2 50168  53.2169 304.3492 0001323 104.3407 255.7732 15.08856230134806,6917.831,95.437,540.611,538.781,0.0
50168.0,STARLINK-3296,PAYLOAD,2024-05-25 11:00:43,15.08833656,0.0001185,53.2172,301.6734,99.4689,260.6437,8.9828e-05,1.142e-05,0.0,0 STARLINK-3296,1 50168U 21125N   24146.45883747  .00001142  00000-0  89828-4 0  9991,2 50168  53.2172 301.6734 0001185  99.4689 260.6437 15.08833656134894,6917.9,95.438,540.585,538.945,0.0
50168.0,STARLINK-3296,PAYLOAD,2024-05-25 14:11:30,15.08828619,7.2e-05,53.2165,301.082,93.5188,266.5887,6.4298e-05,7.36e-06,0.0,0 STARLINK-3296,1 50168U 21125N   24146.59132064  .00000736  00000-0  64298-4 0  9997,2 50168  53.2165 301.0820 0000720  93.5188 266.5887 15.08828619138003,6917.915,95.438,540.278,539.282,0.0
50168.0,STARLINK-3296,PAYLOAD,2024-05-25 17:22:16,15.08824105,0.0001155,53.217,300.488,85.892,274.2204,-3.0412e-05,-7.72e-06,0.0,0 STARLINK-3296,1 50168U 21125N   24146.72380415 -.00000772  00000-0 -30412-4 0  9990,2 50168  53.2170 300.4880 0001155  85.8920 274.2204 15.08824105134932,6917.929,95.439,540.593,538.995,0.0
50168.0,STARLINK-3296,PAYLOAD,2024-05-26 02:54:34,15.08839923,0.0001005,53.2169,298.7111,104.2215,255.8889,-1.9102e-05,-5.92e-06,0.0,0 STARLINK-3296,1 50168U 21125N   24147.12123684 -.00000592  00000-0 -19102-4 0  9991,2 50168  53.2169 298.7111 0001005 104.2215 255.8889 15.08839923134997,6917.881,95.438,540.441,539.05,0.0
50168.0,STARLINK-3296,PAYLOAD,2024-05-26 14:02:17,15.08831184,0.0001162,53.2172,296.6301,49.2299,310.8794,-8.7546e-05,-1.68e-05,0.0,0 STARLINK-3296,1 50168U 21125N   24147.58492502 -.00001680  00000-0 -87546-4 0  9995,2 50168  53.2172 296.6301 0001162  49.2299 310.8794 15.08831184138153,6917.907,95.438,540.576,538.968,0.0
50168.0,STARLINK-3296,PAYLOAD,2024-05-26 20:23:52,15.08763529,9.8e-05,53.2173,295.4429,73.5859,286.5241,-0.0012484,-0.00020059,0.0,0 STARLINK-3296,1 50168U 21125N   24147.84991330 -.00020059  00000-0 -12484-2 0  9995,2 50168  53.2173 295.4429 0000980  73.5859 286.5241 15.08763529135106,6918.114,95.442,540.657,539.301,0.0
50168.0,STARLINK-3296,PAYLOAD,2024-05-27 13:53:04,15.08834986,0.0001197,53.2186,292.1713,96.3464,263.7664,4.2997e-05,3.96e-06,0.0,0 STARLINK-3296,1 50168U 21125N   24148.57852147  .00000396  00000-0  42997-4 0  9992,2 50168  53.2186 292.1713 0001197  96.3464 263.7664 15.08834986138303,6917.896,95.438,540.589,538.933,0.0
50168.0,STARLINK-3296,PAYLOAD,2024-05-27 20:14:36,15.08835304,0.0001157,53.2176,290.9688,97.2914,262.821,0.0001875,2.697e-05,0.0,0 STARLINK-3296,1 50168U 21125N   24148.84348085  .00002697  00000-0  18750-3 0  9998,2 50168  53.2176 290.9688 0001157  97.2914 262.8210 15.08835304135258,6917.895,95.438,540.56,538.959,0.0
50168.0,STARLINK-3296,PAYLOAD,2024-05-27 21:49:59,15.08839113,0.0001024,53.2173,290.6741,104.1191,255.9915,0.00021625,3.155e-05,0.0,0 STARLINK-3296,1 50168U 21125N   24148.90971758  .00003155  00000-0  21625-3 0  9999,2 50168  53.2173 290.6741 0001024 104.1191 255.9915 15.08839113138351,6917.883,95.438,540.456,539.04,0.0
50168.0,STARLINK-3296,PAYLOAD,2024-05-28 13:43:51,15.08842626,0.0001006,53.2169,287.7002,98.4672,261.6435,1.9561e-05,2.4e-07,0.0,0 STARLINK-3296,1 50168U 21125N   24149.57211902  .00000024  00000-0  19561-4 0  9990,2 50168  53.2169 287.7002 0001006  98.4672 261.6435 15.08842626138457,6917.872,95.437,540.433,539.041,0.0
50168.0,STARLINK-3296,PAYLOAD,2024-05-28 16:54:37,15.08846665,0.0001134,53.2172,287.1059,96.0547,264.0574,1.3499e-06,-2.66e-06,0.0,0 STARLINK-3296,1 50168U 21125N   24149.70459653 -.00000266  00000-0  13499-5 0  9996,2 50168  53.2172 287.1059 0001134  96.0547 264.0574 15.08846665138474,6917.86,95.437,540.51,538.941,0.0
50168.0,STARLINK-3296,PAYLOAD,2024-05-29 13:34:38,15.08840713,0.0001037,53.218,283.2398,88.4254,271.6857,4.426e-05,4.17e-06,0.0,0 STARLINK-3296,1 50168U 21125N   24150.56571900  .00000417  00000-0  44260-4 0  9998,2 50168  53.2180 283.2398 0001037  88.4254 271.6857 15.08840713135516,6917.878,95.438,540.461,539.026,0.0
